NORAD_CAT_ID,OBJECT_NAME,OBJECT_TYPE,EPOCH,MEAN_MOTION,ECCENTRICITY,INCLINATION,RA_OF_ASC_NODE,ARG_OF_PERICENTER,MEAN_ANOMALY,BSTAR,MEAN_MOTION_DOT,MEAN_MOTION_DDOT,TLE_LINE0,TLE_LINE1,TLE_LINE2,SEMIMAJOR_AXIS,PERIOD,APOGEE,PERIGEE,DECAYED
53716.0,STARLINK-4699,PAYLOAD,2022-10-04 14:00:01,15.73205039,0.0001554999999999,53.2144,127.187,135.1742,341.7997,-6.487600000000001e-05,-9.717e-05,0.0,0 STARLINK-4699,1 53716U 22107S   22277.58334491 -.00009717  00000-0 -64876-4 0  9992,2 53716  53.2144 127.1870 0001555 135.1742 341.7997 15.73205039  1307,6727.880999999999,91.533,350.792,348.7,0.0
53716.0,STARLINK-4699,PAYLOAD,2022-10-04 16:00:00,15.73209503,0.000151,53.2144,126.7752,134.9125,94.2945,-0.00021311,-0.00030433,0.0,0 STARLINK-4699,1 53716U 22107S   22277.66667824 -.00030433  00000-0 -21311-3 0  9995,2 53716  53.2144 126.7752 0001510 134.9125  94.2945 15.73209503  4760,6727.868,91.533,350.749,348.717,0.0
53716.0,STARLINK-4699,PAYLOAD,2022-10-04 22:00:00,15.73160859,0.0001267,53.2143,125.5397,124.3448,81.5673,0.00040666,0.00056742,0.0,0 STARLINK-4699,1 53716U 22107S   22277.91667824  .00056742  00000-0  40666-3 0  9996,2 53716  53.2143 125.5397 0001267 124.3448  81.5673 15.73160859  1305,6728.007,91.535,350.724,349.019,0.0
53716.0,STARLINK-4699,PAYLOAD,2022-10-05 14:00:01,15.73182946,0.0001581,53.2146,122.2386,129.558,254.1395,3.178e-05,3.839e-05,0.0,0 STARLINK-4699,1 53716U 22107S   22278.58335648  .00003839  00000-0  31780-4 0  9993,2 53716  53.2146 122.2386 0001581 129.5580 254.1395 15.73182946  1303,6727.944,91.534,350.872,348.745,0.0
53716.0,STARLINK-4699,PAYLOAD,2022-10-05 22:00:00,15.73147342,0.0001293,53.2146,120.5912,123.126,349.423,0.00069511,0.00097856,0.0,0 STARLINK-4699,1 53716U 22107S   22278.91667824  .00097856  00000-0  69511-3 0  9998,2 53716  53.2146 120.5912 0001293 123.1260 349.4230 15.73147342  4966,6728.045,91.536,350.78,349.04,0.0
53716.0,STARLINK-4699,PAYLOAD,2022-10-06 14:00:01,15.73169996,0.0001358,53.2142,117.2903,133.2118,157.1896,0.00042055,0.00058739,0.0,0 STARLINK-4699,1 53716U 22107S   22279.58334491  .00058739  00000-0  42055-3 0  9994,2 53716  53.2142 117.2903 0001358 133.2118 157.1896 15.73169996  1307,6727.981,91.535,350.759,348.932,0.0
53716.0,STARLINK-4699,PAYLOAD,2022-10-06 22:42:55,15.73170686,0.0001141,53.214,115.4954,120.5065,67.6534,0.00056715,0.00079633,0.0,0 STARLINK-4699,1 53716U 22107S   22279.94646991  .00079633  00000-0  56715-3 0  9999,2 53716  53.2140 115.4954 0001141 120.5065  67.6534 15.73170686  1303,6727.979,91.535,350.611,349.076,0.0
53716.0,STARLINK-4699,PAYLOAD,2022-10-07 00:00:00,15.73156174,0.0001135,53.2138,115.2304,121.9792,9.5943,0.00086994,0.00123041,0.0,0 STARLINK-4699,1 53716U 22107S   22280.00001157  .00123041  00000-0  86994-3 0  9992,2 53716  53.2138 115.2304 0001135 121.9792   9.5943 15.73156174  5132,6728.02,91.536,350.649,349.121,0.0
53716.0,STARLINK-4699,PAYLOAD,2022-10-07 14:00:01,15.73232185,0.0001402,53.2141,112.3413,126.6583,70.5586,-0.00037964,-0.00053635,0.0,0 STARLINK-4699,1 53716U 22107S   22280.58334491 -.00053635  00000-0 -37964-3 0  9991,2 53716  53.2141 112.3413 0001402 126.6583  70.5586 15.73232185  1305,6727.803000000001,91.531,350.612,348.725,0.0
53716.0,STARLINK-4699,PAYLOAD,2022-10-07 22:00:00,15.73175797,0.0001151,53.214,110.6936,115.1028,171.0694,-4.4721e-05,-6.884e-05,0.0,0 STARLINK-4699,1 53716U 22107S   22280.91667824 -.00006884  00000-0 -44721-4 0  9991,2 53716  53.2140 110.6936 0001151 115.1028 171.0694 15.73175797  1305,6727.964,91.535,350.60400000000016,349.055,0.0
53716.0,STARLINK-4699,PAYLOAD,2022-10-08 14:00:01,15.73203615,0.0001499,53.2177,107.3905,112.2872,351.6537,1.1829e-05,1.04e-05,0.0,0 STARLINK-4699,1 53716U 22107S   22281.58334491  .00001040  00000-0  11829-4 0  9996,2 53716  53.2177 107.3905 0001499 112.2872 351.6537 15.73203615  5389,6727.885,91.533,350.7580000000001,348.741,0.0
53716.0,STARLINK-4699,PAYLOAD,2022-10-08 22:00:00,15.73176032,9.12e-05,53.2134,105.7445,113.2446,79.764,0.00032399,0.00045047,0.0,0 STARLINK-4699,1 53716U 22107S   22281.91667824  .00045047  00000-0  32399-3 0  9991,2 53716  53.2134 105.7445 0000912 113.2446  79.7640 15.73176032  5431,6727.964,91.535,350.44199999999995,349.215,0.0
53716.0,STARLINK-4699,PAYLOAD,2022-10-09 14:00:01,15.73238632,0.0001155,53.2137,102.4432,115.5402,255.3285,-0.00045247,-0.00063745,0.0,0 STARLINK-4699,1 53716U 22107S   22282.58334491 -.00063745  00000-0 -45247-3 0  9999,2 53716  53.2137 102.4432 0001155 115.5402 255.3285 15.73238632  1305,6727.785,91.531,350.427,348.87300000000016,0.0
53716.0,STARLINK-4699,PAYLOAD,2022-10-09 22:00:00,15.73159646,0.0001068,53.2137,100.7953,98.504,1.3218,0.00024025,0.00033172,0.0,0 STARLINK-4699,1 53716U 22107S   22282.91667824  .00033172  00000-0  24025-3 0  9995,2 53716  53.2137 100.7953 0001068  98.5040   1.3218 15.73159646  1307,6728.01,91.536,350.594,349.157,0.0
53716.0,STARLINK-4699,PAYLOAD,2022-10-10 06:00:00,15.73174898,0.0001159999999999,53.2143,99.1434,102.9874,85.7364,9.996e-06,7.82e-06,0.0,0 STARLINK-4699,1 53716U 22107S   22283.25001157  .00000782  00000-0  99960-5 0  9997,2 53716  53.2143  99.1434 0001160 102.9874  85.7364 15.73174898  5642,6727.967,91.535,350.612,349.051,0.0
53716.0,STARLINK-4699,PAYLOAD,2022-10-10 14:00:01,15.73257923,0.0001220999999999,53.2144,97.494,104.9933,172.6793,-0.00025625,-0.00036516,0.0,0 STARLINK-4699,1 53716U 22107S   22283.58334491 -.00036516  00000-0 -25625-3 0  9994,2 53716  53.2144  97.4940 0001221 104.9933 172.6793 15.73257923  5690,6727.73,91.53,350.416,348.774,0.0
53716.0,STARLINK-4699,PAYLOAD,2022-10-10 22:00:01,15.73298679,0.0001113,53.2154,95.8461,102.2699,264.4485,-0.00312,-0.00419127,0.0,0 STARLINK-4699,1 53716U 22107S   22283.91668981 -.00419127  00000-0 -31200-2 0  9993,2 53716  53.2154  95.8461 0001113 102.2699 264.4485 15.73298679  1306,6727.614000000001,91.527,350.228,348.73,0.0
53716.0,STARLINK-4699,PAYLOAD,2022-10-11 06:00:00,15.73161316,0.0001018,53.2141,94.1946,100.27,355.2689,-8.6154e-05,-0.00012672,0.0,0 STARLINK-4699,1 53716U 22107S   22284.25001157 -.00012672  00000-0 -86154-4 0  9991,2 53716  53.2141  94.1946 0001018 100.2700 355.2689 15.73161316  5808,6728.005,91.535,350.555,349.186,0.0
53716.0,STARLINK-4699,PAYLOAD,2022-10-11 14:00:01,15.73189639,0.0001095999999999,53.2173,92.5441,103.1364,81.218,0.00019449,0.0002675,0.0,0 STARLINK-4699,1 53716U 22107S   22284.58334491  .00026750  00000-0  19449-3 0  9999,2 53716  53.2173  92.5441 0001096 103.1364  81.2180 15.73189639  1300,6727.925,91.534,350.527,349.052,0.0
53716.0,STARLINK-4699,PAYLOAD,2022-10-11 22:00:00,15.73158104,0.0001307,53.2138,90.8977,79.3751,193.8846,0.00036625,0.00051001,0.0,0 STARLINK-4699,1 53716U 22107S   22284.91667824  .00051001  00000-0  36625-3 0  9997,2 53716  53.2138  90.8977 0001307  79.3751 193.8846 15.73158104  1307,6728.015,91.536,350.759,349.0,0.0
53716.0,STARLINK-4699,PAYLOAD,2022-10-12 06:00:00,15.73185718,0.0001199999999999,53.2148,89.2459,89.2037,272.9401,0.00026387,0.00036551,0.0,0 STARLINK-4699,1 53716U 22107S   22285.25001157  .00036551  00000-0  26387-3 0  9993,2 53716  53.2148  89.2459 0001200  89.2037 272.9401 15.73185718  5956,6727.936,91.534,350.608,348.994,0.0
53716.0,STARLINK-4699,PAYLOAD,2022-10-12 14:00:01,15.7317284,0.0001027,53.2159,87.5961,90.6088,0.4681,0.0012067,0.00172044,0.0,0 STARLINK-4699,1 53716U 22107S   22285.58334491  .00172044  00000-0  12067-2 0  9996,2 53716  53.2159  87.5961 0001027  90.6088   0.4681 15.73172840  1307,6727.973000000001,91.535,350.529,349.147,0.0
53716.0,STARLINK-4699,PAYLOAD,2022-10-12 22:00:00,15.73256024,7.840000000000001e-05,53.2167,85.9481,72.3003,107.7592,-0.00057976,-0.00081392,0.0,0 STARLINK-4699,1 53716U 22107S   22285.91667824 -.00081392  00000-0 -57976-3 0  9998,2 53716  53.2167  85.9481 0000784  72.3003 107.7592 15.73256024  1307,6727.735,91.53,350.12800000000016,349.0730000000001,0.0
53716.0,STARLINK-4699,PAYLOAD,2022-10-13 06:00:00,15.73202986,6.790000000000001e-05,53.2174,84.2961,86.5258,182.4955,1.685e-05,1.747e-05,0.0,0 STARLINK-4699,1 53716U 22107S   22286.25001157  .00001747  00000-0  16850-4 0  9998,2 53716  53.2174  84.2961 0000679  86.5258 182.4955 15.73202986  6117,6727.887,91.533,350.208,349.295,0.0
53716.0,STARLINK-4699,PAYLOAD,2022-10-13 14:00:01,15.73205487,0.0001349,53.2172,82.6471,88.1385,269.8156,-1.4628e-05,-2.673e-05,0.0,0 STARLINK-4699,1 53716U 22107S   22286.58334491 -.00002673  00000-0 -14628-4 0  9996,2 53716  53.2172  82.6471 0001349  88.1385 269.8156 15.73205487  1305,6727.88,91.533,350.652,348.837,0.0
53716.0,STARLINK-4699,PAYLOAD,2022-10-13 22:00:00,15.732574800000002,0.0001325,53.2167,80.9991,73.1511,13.7098,-0.00058804,-0.00082544,0.0,0 STARLINK-4699,1 53716U 22107S   22286.91667824 -.00082544  00000-0 -58804-3 0  9990,2 53716  53.2167  80.9991 0001325  73.1511  13.7098 15.73257480  1307,6727.731,91.53,350.48800000000006,348.705,0.0
53716.0,STARLINK-4699,PAYLOAD,2022-10-14 14:00:01,15.73204514,0.0001261,53.2173,77.6985,74.7858,189.9714,-1.4106e-06,-8.18e-06,0.0,0 STARLINK-4699,1 53716U 22107S   22287.58334491 -.00000818  00000-0 -14106-5 0  9998,2 53716  53.2173  77.6985 0001261  74.7858 189.9714 15.73204514  1301,6727.882,91.533,350.596,348.899,0.0
53716.0,STARLINK-4699,PAYLOAD,2022-10-14 16:00:00,15.73204802,0.0001289,53.2174,77.2867,73.0084,303.9819,-5.8927e-06,-1.447e-05,0.0,0 STARLINK-4699,1 53716U 22107S   22287.66667824 -.00001447  00000-0 -58927-5 0  9994,2 53716  53.2174  77.2867 0001289  73.0084 303.9819 15.73204802  6332,6727.880999999999,91.533,350.61400000000015,348.879,0.0
53716.0,STARLINK-4699,PAYLOAD,2022-10-14 20:00:01,15.73202194,0.0001262999999999,53.2175,76.4626,71.9709,169.4871,3.0083000000000013e-05,3.604e-05,0.0,0 STARLINK-4699,1 53716U 22107S   22287.83334491  .00003604  00000-0  30083-4 0  9991,2 53716  53.2175  76.4626 0001263  71.9709 169.4871 15.73202194  1307,6727.889,91.533,350.60400000000016,348.904,0.0
